NORAD_CAT_ID,OBJECT_NAME,OBJECT_TYPE,EPOCH,MEAN_MOTION,ECCENTRICITY,INCLINATION,RA_OF_ASC_NODE,ARG_OF_PERICENTER,MEAN_ANOMALY,BSTAR,MEAN_MOTION_DOT,MEAN_MOTION_DDOT,TLE_LINE0,TLE_LINE1,TLE_LINE2,SEMIMAJOR_AXIS,PERIOD,APOGEE,PERIGEE,DECAYED
55741.0,STARLINK-5592,PAYLOAD,2023-09-27 14:46:41,14.97528139,0.0002913,70.0018,338.8514,281.1178,78.9653,0.012102,0.00144305,0.0,0 STARLINK-5592,1 55741U 23028A   23270.61576105  .00144305  00000-0  12102-1 0  9996,2 55741  70.0018 338.8514 0002913 281.1178  78.9653 14.97528139 32108,6952.674,96.158,576.564,572.513,0.0
55741.0,STARLINK-5592,PAYLOAD,2023-09-28 06:00:00,14.98353863,0.0003198,70.0029,337.2531,273.007,266.5741,-0.0023694,-0.00028268,0.0,0 STARLINK-5592,1 55741U 23028A   23271.25001157 -.00028268  00000-0 -23694-2 0  9997,2 55741  70.0029 337.2531 0003198 273.0070 266.5741 14.98353863 32204,6950.119,96.105,574.207,569.761,0.0
55741.0,STARLINK-5592,PAYLOAD,2023-09-28 16:00:30,14.98323419,0.0003238,70.0024,336.2016,279.3496,348.9722,0.00079795,9.439e-05,0.0,0 STARLINK-5592,1 55741U 23028A   23271.66702546  .00009439  00000-0  79795-3 0  9993,2 55741  70.0024 336.2016 0003238 279.3496 348.9722 14.98323419  5592,6950.213,96.107,574.329,569.828,0.0
55741.0,STARLINK-5592,PAYLOAD,2023-09-28 22:00:01,14.98319989,0.000316,70.0024,335.5723,275.143,259.4802,0.00038133,4.459e-05,0.0,0 STARLINK-5592,1 55741U 23028A   23271.91668981  .00004459  00000-0  38133-3 0  9993,2 55741  70.0024 335.5723 0003160 275.1430 259.4802 14.98319989  5632,6950.224,96.108,574.285,569.893,0.0
55741.0,STARLINK-5592,PAYLOAD,2023-09-29 06:00:00,14.98350008,0.0003179,70.0025,334.7319,272.8288,259.1925,-0.0016962,-0.00020284,0.0,0 STARLINK-5592,1 55741U 23028A   23272.25001157 -.00020284  00000-0 -16962-2 0  9998,2 55741  70.0025 334.7319 0003179 272.8288 259.1925 14.98350008 32359,6950.131,96.106,574.205,569.787,0.0
55741.0,STARLINK-5592,PAYLOAD,2023-09-29 14:00:01,14.98324357,0.0003182,70.0022,333.8915,278.598,250.9308,0.00074304,8.783e-05,0.0,0 STARLINK-5592,1 55741U 23028A   23272.58334491  .00008783  00000-0  74304-3 0  9997,2 55741  70.0022 333.8915 0003182 278.5980 250.9308 14.98324357  5738,6950.21,96.107,574.287,569.864,0.0
55741.0,STARLINK-5592,PAYLOAD,2023-09-30 06:00:00,14.98361146,0.0003128,70.0019,332.2105,270.9286,253.5669,-0.0013941,-0.00016701,0.0,0 STARLINK-5592,1 55741U 23028A   23273.25001157 -.00016701  00000-0 -13941-2 0  9992,2 55741  70.0019 332.2105 0003128 270.9286 253.5669 14.98361146 32504,6950.097,96.105,574.136,569.788,0.0
55741.0,STARLINK-5592,PAYLOAD,2023-10-01 14:00:01,14.98325773,0.0003236,70.0012,328.8482,277.0713,237.4105,-0.0015518,-0.00018558,0.0,0 STARLINK-5592,1 55741U 23028A   23274.58334491 -.00018558  00000-0 -15518-2 0  9993,2 55741  70.0012 328.8482 0003236 277.0713 237.4105 14.98325773 32703,6950.206,96.107,574.32,569.822,0.0
55741.0,STARLINK-5592,PAYLOAD,2023-10-01 22:00:00,14.9828738,0.0003216,70.0011,328.0076,273.6707,238.2865,0.0028308,0.0003381,0.0,0 STARLINK-5592,1 55741U 23028A   23274.91667824  .00033810  00000-0  28308-2 0  9996,2 55741  70.0011 328.0076 0003216 273.6707 238.2865 14.98287380  5798,6950.325,96.11,574.425,569.954,0.0
55741.0,STARLINK-5592,PAYLOAD,2023-10-02 00:00:02,14.98270675,0.0003221,70.001,327.7975,272.558,328.828,0.006875,0.00082788,0.0,0 STARLINK-5592,1 55741U 23028A   23275.00002315  .00082788  00000-0  68750-2 0  9998,2 55741  70.0010 327.7975 0003221 272.5580 328.8280 14.98270675 32767,6950.376,96.111,574.48,570.003,0.0
55741.0,STARLINK-5592,PAYLOAD,2023-10-02 10:08:33,14.98323997,0.0002782,70.0003,326.7315,269.9344,90.1496,-2.0071e-06,-1.17e-06,0.0,0 STARLINK-5592,1 55741U 23028A   23275.42260599 -.00000117  00000-0 -20071-5 0  9999,2 55741  70.0003 326.7315 0002782 269.9344  90.1496 14.98323997 32826,6950.211,96.107,574.01,570.143,0.0
55741.0,STARLINK-5592,PAYLOAD,2023-10-02 13:20:49,14.98324758,0.0002877,70.0002,326.395,271.5492,88.5337,-3.787e-05,-5.45e-06,0.0,0 STARLINK-5592,1 55741U 23028A   23275.55612621 -.00000545  00000-0 -37870-4 0  9999,2 55741  70.0002 326.3950 0002877 271.5492  88.5337 14.98324758 33040,6950.209,96.107,574.074,570.075,0.0
55741.0,STARLINK-5592,PAYLOAD,2023-10-03 03:46:01,14.98331837,0.0003097,69.9993,324.8815,272.7168,87.3637,0.00011115,1.234e-05,0.0,0 STARLINK-5592,1 55741U 23028A   23276.15695890  .00001234  00000-0  11115-3 0  9992,2 55741  69.9993 324.8815 0003097 272.7168  87.3637 14.98331837 32930,6950.187,96.107,574.205,569.9,0.0
55741.0,STARLINK-5592,PAYLOAD,2023-10-03 13:22:49,14.98335977,0.0002933,69.9999,323.8705,271.8771,88.2052,0.0002427,2.804e-05,0.0,0 STARLINK-5592,1 55741U 23028A   23276.55751419  .00002804  00000-0  24270-3 0  9996,2 55741  69.9999 323.8705 0002933 271.8771  88.2052 14.98335977 33190,6950.174,96.107,574.078,570.001,0.0
55741.0,STARLINK-5592,PAYLOAD,2023-10-04 10:12:34,14.98328405,0.0002994,69.9996,321.6824,274.3208,85.7609,0.00020017,2.296e-05,0.0,0 STARLINK-5592,1 55741U 23028A   23277.42540103  .00002296  00000-0  20017-3 0  9999,2 55741  69.9996 321.6824 0002994 274.3208  85.7609 14.98328405 33126,6950.198,96.107,574.144,569.982,0.0
55741.0,STARLINK-5592,PAYLOAD,2023-10-04 13:24:50,14.98334655,0.0002935,70.0009,321.3456,274.7519,85.3305,0.00023773,2.745e-05,0.0,0 STARLINK-5592,1 55741U 23028A   23277.55891780  .00002745  00000-0  23773-3 0  9994,2 55741  70.0009 321.3456 0002935 274.7519  85.3305 14.98334655 33343,6950.178,96.107,574.083,570.004,0.0
55741.0,STARLINK-5592,PAYLOAD,2023-10-04 19:49:21,14.98362959,0.0003087,70.0009,320.6716,273.1935,86.8871,-0.0011293,-0.00013553,0.0,0 STARLINK-5592,1 55741U 23028A   23277.82593836 -.00013553  00000-0 -11293-2 0  9999,2 55741  70.0009 320.6716 0003087 273.1935  86.8871 14.98362959 33384,6950.091,96.105,574.101,569.81,0.0
55741.0,STARLINK-5592,PAYLOAD,2023-10-05 10:14:35,14.98333384,0.0002724,70.0001,319.1578,270.2123,89.8723,1.0614e-05,3.4e-07,0.0,0 STARLINK-5592,1 55741U 23028A   23278.42679978  .00000034  00000-0  10614-4 0  9994,2 55741  70.0001 319.1578 0002724 270.2123  89.8723 14.98333384 33276,6950.182,96.107,573.941,570.154,0.0
55741.0,STARLINK-5592,PAYLOAD,2023-10-05 11:50:43,14.98334191,0.0002839,70.0,318.9895,271.8751,88.2083,3.8374e-07,-8.8e-07,0.0,0 STARLINK-5592,1 55741U 23028A   23278.49355900 -.00000088  00000-0  38374-6 0  9992,2 55741  70.0000 318.9895 0002839 271.8751  88.2083 14.98334191 33487,6950.18,96.107,574.018,570.072,0.0
55741.0,STARLINK-5592,PAYLOAD,2023-10-05 19:51:23,14.98355221,0.0002938,70.0,318.1478,274.3901,85.6922,-0.00041812,-5.082e-05,0.0,0 STARLINK-5592,1 55741U 23028A   23278.82735063 -.00005082  00000-0 -41812-3 0  9999,2 55741  70.0000 318.1478 0002938 274.3901  85.6922 14.98355221 33537,6950.115,96.105,574.022,569.938,0.0
55741.0,STARLINK-5592,PAYLOAD,2023-10-06 10:16:36,14.98337006,0.0002776,70.0,316.6328,267.6731,92.4111,-5.5805e-05,-7.59e-06,0.0,0 STARLINK-5592,1 55741U 23028A   23279.42819867 -.00000759  00000-0 -55805-4 0  9995,2 55741  70.0000 316.6328 0002776 267.6731  92.4111 14.98337006 33425,6950.171,96.107,573.966,570.107,0.0
55741.0,STARLINK-5592,PAYLOAD,2023-10-06 11:52:44,14.98344532,0.0002873,69.9998,316.4646,268.5925,91.4905,-0.0001956,-2.427e-05,0.0,0 STARLINK-5592,1 55741U 23028A   23279.49495685 -.00002427  00000-0 -19560-3 0  9991,2 55741  69.9998 316.4646 0002873 268.5925  91.4905 14.98344532 33637,6950.148,96.106,574.01,570.016,0.0
55741.0,STARLINK-5592,PAYLOAD,2023-10-06 19:53:24,14.98331514,0.0002874,69.9995,315.623,270.1615,89.9215,3.2311e-05,2.93e-06,0.0,0 STARLINK-5592,1 55741U 23028A   23279.82875927  .00000293  00000-0  32311-4 0  9996,2 55741  69.9995 315.6230 0002874 270.1615  89.9215 14.98331514 33687,6950.188,96.107,574.051,570.056,0.0
55741.0,STARLINK-5592,PAYLOAD,2023-10-07 10:18:36,14.98361547,0.0003017,69.9993,314.1082,269.0297,91.0517,-0.00047227,-5.728e-05,0.0,0 STARLINK-5592,1 55741U 23028A   23280.42958971 -.00005728  00000-0 -47227-3 0  9996,2 55741  69.9993 314.1082 0003017 269.0297  91.0517 14.98361547 33573,6950.095,96.105,574.057,569.863,0.0
55741.0,STARLINK-5592,PAYLOAD,2023-10-07 11:54:45,14.98331579,0.0002838,69.9994,313.9398,269.9564,90.1269,0.00010555,1.167e-05,0.0,0 STARLINK-5592,1 55741U 23028A   23280.49635857  .00001167  00000-0  10555-3 0  9993,2 55741  69.9994 313.9398 0002838 269.9564  90.1269 14.98331579 33786,6950.188,96.107,574.025,570.081,0.0
55741.0,STARLINK-5592,PAYLOAD,2023-10-07 19:55:26,14.98329121,0.000282,69.9992,313.0983,275.5563,84.5274,2.8503e-05,2.47e-06,0.0,0 STARLINK-5592,1 55741U 23028A   23280.83016248  .00000247  00000-0  28503-4 0  9999,2 55741  69.9992 313.0983 0002820 275.5563  84.5274 14.98329121 33837,6950.196,96.107,574.021,570.101,0.0
55741.0,STARLINK-5592,PAYLOAD,2023-10-08 11:56:46,14.98332892,0.0002896,69.999,311.4137,267.0554,93.0274,0.00010541,1.165e-05,0.0,0 STARLINK-5592,1 55741U 23028A   23281.49775844  .00001165  00000-0  10541-3 0  9998,2 55741  69.9990 311.4137 0002896 267.0554  93.0274 14.98332892 33932,6950.184,96.107,574.062,570.036,0.0
55741.0,STARLINK-5592,PAYLOAD,2023-10-08 19:57:27,14.98306448,0.0002746,69.999,310.5714,274.7471,85.3374,0.00060012,7.07e-05,0.0,0 STARLINK-5592,1 55741U 23028A   23281.83156885  .00007070  00000-0  60012-3 0  9993,2 55741  69.9990 310.5714 0002746 274.7471  85.3374 14.98306448 33988,6950.266,96.109,574.039,570.222,0.0
55741.0,STARLINK-5592,PAYLOAD,2023-10-09 11:58:47,14.98334193,0.0002913,69.999,308.8884,275.9077,84.175,0.00014191,1.601e-05,0.0,0 STARLINK-5592,1 55741U 23028A   23282.49915640  .00001601  00000-0  14191-3 0  9999,2 55741  69.9990 308.8884 0002913 275.9077  84.1750 14.98334193 34082,6950.18,96.107,574.07,570.02,0.0
55741.0,STARLINK-5592,PAYLOAD,2023-10-10 12:00:47,14.98337205,0.0002845,69.999,306.3642,264.9283,95.1552,8.7666e-05,9.53e-06,0.0,0 STARLINK-5592,1 55741U 23028A   23283.50055332  .00000953  00000-0  87666-4 0  9992,2 55741  69.9990 306.3642 0002845 264.9283  95.1552 14.98337205 34234,6950.171,96.107,574.013,570.058,0.0
